{
  "type": "FeatureCollection",
  "features": [
    {
      "type": "Feature",
      "properties": {
        "norad_id": 57400,
        "name": "TIANMU-1 08",
        "group": "weather",
        "lat": 24.011368783789578,
        "lon": 30.06928153811776,
        "alt_km": 479.4261784576611,
        "timestamp": "2025-12-09T14:52:25.808566+00:00",
        "meta_object_name": "TIANMU-1 08",
        "meta_object_id": "2023-101B",
        "meta_epoch": "2025-12-09T06:54:34.627392",
        "meta_mean_motion": 15.2797718,
        "meta_eccentricity": 0.00075597,
        "meta_inclination": 97.2865,
        "meta_ra_of_asc_node": 33.0124,
        "meta_arg_of_pericenter": 93.5393,
        "meta_mean_anomaly": 266.6712,
        "meta_ephemeris_type": 0,
        "meta_classification_type": "U",
        "meta_norad_cat_id": 57400,
        "meta_element_set_no": 999,
        "meta_rev_at_epoch": 13262,
        "meta_bstar": 0.00037538554,
        "meta_mean_motion_dot": 0.00010186,
        "meta_mean_motion_ddot": 0,
        "tle_line1": "1 57400U 23101B   25343.28790078  .00010186  00000+0  37539-3 0  9996",
        "tle_line2": "2 57400  97.2865  33.0124 0007559  93.5393 266.6712 15.27977180132627"
      },
      "geometry": {
        "type": "Point",
        "coordinates": [
          30.06928153811776,
          24.011368783789578
        ]
      }
    },
    {
      "type": "Feature",
      "properties": {
        "norad_id": 57401,
        "name": "TIANMU-1 09",
        "group": "weather",
        "lat": 80.07639293004767,
        "lon": -100.18502826920098,
        "alt_km": 469.72101464205207,
        "timestamp": "2025-12-09T14:52:25.808577+00:00",
        "meta_object_name": "TIANMU-1 09",
        "meta_object_id": "2023-101C",
        "meta_epoch": "2025-12-09T08:09:56.331648",
        "meta_mean_motion": 15.28005264,
        "meta_eccentricity": 0.00068191,
        "meta_inclination": 97.2821,
        "meta_ra_of_asc_node": 32.5788,
        "meta_arg_of_pericenter": 92.9533,
        "meta_mean_anomaly": 267.2488,
        "meta_ephemeris_type": 0,
        "meta_classification_type": "U",
        "meta_norad_cat_id": 57401,
        "meta_element_set_no": 999,
        "meta_rev_at_epoch": 13263,
        "meta_bstar": 0.0003833906,
        "meta_mean_motion_dot": 0.00010413,
        "meta_mean_motion_ddot": 0,
        "tle_line1": "1 57401U 23101C   25343.34023532  .00010413  00000+0  38339-3 0  9990",
        "tle_line2": "2 57401  97.2821  32.5788 0006819  92.9533 267.2488 15.28005264132631"
      },
      "geometry": {
        "type": "Point",
        "coordinates": [
          -100.18502826920098,
          80.07639293004767
        ]
      }
    },
    {
      "type": "Feature",
      "properties": {
        "norad_id": 57402,
        "name": "TIANMU-1 10",
        "group": "weather",
        "lat": -82.602101640656,
        "lon": 133.30574561491198,
        "alt_km": 495.02911681570095,
        "timestamp": "2025-12-09T14:52:25.808590+00:00",
        "meta_object_name": "TIANMU-1 10",
        "meta_object_id": "2023-101D",
        "meta_epoch": "2025-12-09T07:24:52.778880",
        "meta_mean_motion": 15.27995074,
        "meta_eccentricity": 0.00085654,
        "meta_inclination": 97.2902,
        "meta_ra_of_asc_node": 33.3944,
        "meta_arg_of_pericenter": 93.2292,
        "meta_mean_anomaly": 266.9928,
        "meta_ephemeris_type": 0,
        "meta_classification_type": "U",
        "meta_norad_cat_id": 57402,
        "meta_element_set_no": 999,
        "meta_rev_at_epoch": 13262,
        "meta_bstar": 0.00038065687,
        "meta_mean_motion_dot": 0.00010338,
        "meta_mean_motion_ddot": 0,
        "tle_line1": "1 57402U 23101D   25343.30894420  .00010338  00000+0  38066-3 0  9992",
        "tle_line2": "2 57402  97.2902  33.3944 0008565  93.2292 266.9928 15.27995074132621"
      },
      "geometry": {
        "type": "Point",
        "coordinates": [
          133.30574561491198,
          -82.602101640656
        ]
      }
    },
    {
      "type": "Feature",
      "properties": {
        "norad_id": 57490,
        "name": "FENGYUN 3F",
        "group": "weather",
        "lat": -57.95184683043976,
        "lon": 66.1355291698533,
        "alt_km": 833.2037783255892,
        "timestamp": "2025-12-09T14:52:25.808600+00:00",
        "meta_object_name": "FENGYUN 3F",
        "meta_object_id": "2023-111A",
        "meta_epoch": "2025-12-09T06:41:43.211040",
        "meta_mean_motion": 14.19892273,
        "meta_eccentricity": 6.535e-05,
        "meta_inclination": 98.7088,
        "meta_ra_of_asc_node": 51.6282,
        "meta_arg_of_pericenter": 95.6643,
        "meta_mean_anomaly": 264.4608,
        "meta_ephemeris_type": 0,
        "meta_classification_type": "U",
        "meta_norad_cat_id": 57490,
        "meta_element_set_no": 999,
        "meta_rev_at_epoch": 12191,
        "meta_bstar": 0.00010024572,
        "meta_mean_motion_dot": 1.69e-06,
        "meta_mean_motion_ddot": 0,
        "tle_line1": "1 57490U 23111A   25343.27897235  .00000169  00000+0  10025-3 0  9999",
        "tle_line2": "2 57490  98.7088  51.6282 0000653  95.6643 264.4608 14.19892273121918"
      },
      "geometry": {
        "type": "Point",
        "coordinates": [
          66.1355291698533,
          -57.95184683043976
        ]
      }
    },
    {
      "type": "Feature",
      "properties": {
        "norad_id": 58584,
        "name": "ARKTIKA-M 2",
        "group": "weather",
        "lat": 61.82415438900135,
        "lon": -75.32794033637325,
        "alt_km": 36690.44067253087,
        "timestamp": "2025-12-09T14:52:25.808613+00:00",
        "meta_object_name": "ARKTIKA-M 2",
        "meta_object_id": "2023-198A",
        "meta_epoch": "2025-12-08T20:10:13.977120",
        "meta_mean_motion": 2.0060476,
        "meta_eccentricity": 0.68646991,
        "meta_inclination": 63.2247,
        "meta_ra_of_asc_node": 175.3152,
        "meta_arg_of_pericenter": 268.1185,
        "meta_mean_anomaly": 18.8267,
        "meta_ephemeris_type": 0,
        "meta_classification_type": "U",
        "meta_norad_cat_id": 58584,
        "meta_element_set_no": 999,
        "meta_rev_at_epoch": 1450,
        "meta_bstar": 0,
        "meta_mean_motion_dot": 1.66e-06,
        "meta_mean_motion_ddot": 0,
        "tle_line1": "1 58584U 23198A   25342.84043955  .00000166  00000+0  00000+0 0  9998",
        "tle_line2": "2 58584  63.2247 175.3152 6864699 268.1185  18.8267  2.00604760 14506"
      },
      "geometry": {
        "type": "Point",
        "coordinates": [
          -75.32794033637325,
          61.82415438900135
        ]
      }
    },
    {
      "type": "Feature",
      "properties": {
        "norad_id": 58645,
        "name": "TIANMU-1 11",
        "group": "weather",
        "lat": 52.51001115530075,
        "lon": -166.99980813742542,
        "alt_km": 492.72937752018424,
        "timestamp": "2025-12-09T14:52:25.809269+00:00",
        "meta_object_name": "TIANMU-1 11",
        "meta_object_id": "2023-205A",
        "meta_epoch": "2025-12-09T08:01:06.193344",
        "meta_mean_motion": 15.24534152,
        "meta_eccentricity": 0.00082123,
        "meta_inclination": 97.3608,
        "meta_ra_of_asc_node": 3.0171,
        "meta_arg_of_pericenter": 324.2373,
        "meta_mean_anomaly": 35.8314,
        "meta_ephemeris_type": 0,
        "meta_classification_type": "U",
        "meta_norad_cat_id": 58645,
        "meta_element_set_no": 999,
        "meta_rev_at_epoch": 10857,
        "meta_bstar": 0.00035962068,
        "meta_mean_motion_dot": 8.79e-05,
        "meta_mean_motion_ddot": 0,
        "tle_line1": "1 58645U 23205A   25343.33409946  .00008790  00000+0  35962-3 0  9996",
        "tle_line2": "2 58645  97.3608   3.0171 0008212 324.2373  35.8314 15.24534152108579"
      },
      "geometry": {
        "type": "Point",
        "coordinates": [
          -166.99980813742542,
          52.51001115530075
        ]
      }
    },
    {
      "type": "Feature",
      "properties": {
        "norad_id": 58646,
        "name": "TIANMU-1 12",
        "group": "weather",
        "lat": -19.597304485601867,
        "lon": 5.741727916324632,
        "alt_km": 494.29006326645685,
        "timestamp": "2025-12-09T14:52:25.809294+00:00",
        "meta_object_name": "TIANMU-1 12",
        "meta_object_id": "2023-205B",
        "meta_epoch": "2025-12-08T16:54:17.464320",
        "meta_mean_motion": 15.2440473,
        "meta_eccentricity": 0.00061116,
        "meta_inclination": 97.3594,
        "meta_ra_of_asc_node": 2.2053,
        "meta_arg_of_pericenter": 309.5629,
        "meta_mean_anomaly": 50.5068,
        "meta_ephemeris_type": 0,
        "meta_classification_type": "U",
        "meta_norad_cat_id": 58646,
        "meta_element_set_no": 999,
        "meta_rev_at_epoch": 10846,
        "meta_bstar": 0.00036097392,
        "meta_mean_motion_dot": 8.785e-05,
        "meta_mean_motion_ddot": 0,
        "tle_line1": "1 58646U 23205B   25342.70436880  .00008785  00000+0  36097-3 0  9998",
        "tle_line2": "2 58646  97.3594   2.2053 0006111 309.5629  50.5068 15.24404730108466"
      },
      "geometry": {
        "type": "Point",
        "coordinates": [
          5.741727916324632,
          -19.597304485601867
        ]
      }
    }
  ]
}